{
  "type": "FeatureCollection",
  "features": [
    {
      "type": "Feature",
      "properties": {
        "norad_id": 66550,
        "name": "CZ-7A R/B",
        "group": "last-30-days",
        "lat": 1.911775659811112,
        "lon": -84.85188692675415,
        "alt_km": 28791.913789922753,
        "timestamp": "2025-12-16T23:36:34.922593+00:00",
        "meta_object_name": "CZ-7A R/B",
        "meta_object_id": "2025-277B",
        "meta_epoch": "2025-12-12T23:59:46.063680",
        "meta_mean_motion": 2.69999213,
        "meta_eccentricity": 0.70164962,
        "meta_inclination": 14.3833,
        "meta_ra_of_asc_node": 269.7494,
        "meta_arg_of_pericenter": 189.2871,
        "meta_mean_anomaly": 143.2042,
        "meta_ephemeris_type": 0,
        "meta_classification_type": "U",
        "meta_norad_cat_id": 66550,
        "meta_element_set_no": 999,
        "meta_rev_at_epoch": 35,
        "meta_bstar": 0.0022608485,
        "meta_mean_motion_dot": 0.01807848,
        "meta_mean_motion_ddot": -2.55676e-07,
        "tle_line1": "1 66550U 25277B   25346.99983870  .01807848 -25568-6  22608-2 0  9997",
        "tle_line2": "2 66550  14.3833 269.7494 7016496 189.2871 143.2042  2.69999213   350"
      },
      "geometry": {
        "type": "Point",
        "coordinates": [
          -84.85188692675415,
          1.911775659811112
        ]
      }
    },
    {
      "type": "Feature",
      "properties": {
        "norad_id": 66554,
        "name": "GLOBAL-33",
        "group": "last-30-days",
        "lat": 42.001137252017834,
        "lon": 122.08661345456012,
        "alt_km": 461.6049045434529,
        "timestamp": "2025-12-16T23:36:34.922612+00:00",
        "meta_object_name": "GLOBAL-33",
        "meta_object_id": "2025-267A",
        "meta_epoch": "2025-12-16T06:00:18.289152",
        "meta_mean_motion": 15.31623856,
        "meta_eccentricity": 0.00037572,
        "meta_inclination": 42.0219,
        "meta_ra_of_asc_node": 36.7279,
        "meta_arg_of_pericenter": 92.6131,
        "meta_mean_anomaly": 267.5137,
        "meta_ephemeris_type": 0,
        "meta_classification_type": "U",
        "meta_norad_cat_id": 66554,
        "meta_element_set_no": 999,
        "meta_rev_at_epoch": 394,
        "meta_bstar": 0.00030439527,
        "meta_mean_motion_dot": 9.257e-05,
        "meta_mean_motion_ddot": 0,
        "tle_line1": "1 66554U 25267A   25350.25021168  .00009257  00000+0  30440-3 0  9994",
        "tle_line2": "2 66554  42.0219  36.7279 0003757  92.6131 267.5137 15.31623856  3941"
      },
      "geometry": {
        "type": "Point",
        "coordinates": [
          122.08661345456012,
          42.001137252017834
        ]
      }
    },
    {
      "type": "Feature",
      "properties": {
        "norad_id": 66555,
        "name": "ELECTRON KICK STAGE R/B",
        "group": "last-30-days",
        "lat": 3.096531914507908,
        "lon": -151.1609299719181,
        "alt_km": 465.9535925794826,
        "timestamp": "2025-12-16T23:36:34.922623+00:00",
        "meta_object_name": "ELECTRON KICK STAGE R/B",
        "meta_object_id": "2025-267B",
        "meta_epoch": "2025-12-16T07:12:47.589984",
        "meta_mean_motion": 15.32987846,
        "meta_eccentricity": 0.00065987,
        "meta_inclination": 42.02,
        "meta_ra_of_asc_node": 36.2375,
        "meta_arg_of_pericenter": 82.1172,
        "meta_mean_anomaly": 278.0415,
        "meta_ephemeris_type": 0,
        "meta_classification_type": "U",
        "meta_norad_cat_id": 66555,
        "meta_element_set_no": 999,
        "meta_rev_at_epoch": 395,
        "meta_bstar": 0.00060963873,
        "meta_mean_motion_dot": 0.0001966,
        "meta_mean_motion_ddot": 0,
        "tle_line1": "1 66555U 25267B   25350.30055081  .00019660  00000+0  60964-3 0  9995",
        "tle_line2": "2 66555  42.0200  36.2375 0006598  82.1172 278.0415 15.32987846  3959"
      },
      "geometry": {
        "type": "Point",
        "coordinates": [
          -151.1609299719181,
          3.096531914507908
        ]
      }
    },
    {
      "type": "Feature",
      "properties": {
        "norad_id": 66557,
        "name": "STARLINK-35699",
        "group": "last-30-days",
        "lat": 35.08581013885812,
        "lon": 145.2988919455996,
        "alt_km": 409.81147891560704,
        "timestamp": "2025-12-16T23:36:34.922634+00:00",
        "meta_object_name": "STARLINK-35699",
        "meta_object_id": "2025-268A",
        "meta_epoch": "2025-12-16T07:54:14.463648",
        "meta_mean_motion": 15.50609379,
        "meta_eccentricity": 0.00015494,
        "meta_inclination": 43.0002,
        "meta_ra_of_asc_node": 100.2063,
        "meta_arg_of_pericenter": 289.8311,
        "meta_mean_anomaly": 70.2382,
        "meta_ephemeris_type": 0,
        "meta_classification_type": "U",
        "meta_norad_cat_id": 66557,
        "meta_element_set_no": 999,
        "meta_rev_at_epoch": 518,
        "meta_bstar": 0.0005216219,
        "meta_mean_motion_dot": 0.00030411,
        "meta_mean_motion_ddot": 0,
        "tle_line1": "1 66557U 25268A   25350.32933407  .00030411  00000+0  52162-3 0  9995",
        "tle_line2": "2 66557  43.0002 100.2063 0001549 289.8311  70.2382 15.50609379  5184"
      },
      "geometry": {
        "type": "Point",
        "coordinates": [
          145.2988919455996,
          35.08581013885812
        ]
      }
    },
    {
      "type": "Feature",
      "properties": {
        "norad_id": 66558,
        "name": "STARLINK-35695",
        "group": "last-30-days",
        "lat": 35.960666928600155,
        "lon": 147.50822104428988,
        "alt_km": 409.93305579370826,
        "timestamp": "2025-12-16T23:36:34.922647+00:00",
        "meta_object_name": "STARLINK-35695",
        "meta_object_id": "2025-268B",
        "meta_epoch": "2025-12-16T07:53:44.815488",
        "meta_mean_motion": 15.50621842,
        "meta_eccentricity": 0.00022726,
        "meta_inclination": 42.9976,
        "meta_ra_of_asc_node": 100.2052,
        "meta_arg_of_pericenter": 283.9242,
        "meta_mean_anomaly": 76.1365,
        "meta_ephemeris_type": 0,
        "meta_classification_type": "U",
        "meta_norad_cat_id": 66558,
        "meta_element_set_no": 999,
        "meta_rev_at_epoch": 518,
        "meta_bstar": 0.0011330079,
        "meta_mean_motion_dot": 0.00066801,
        "meta_mean_motion_ddot": 0,
        "tle_line1": "1 66558U 25268B   25350.32899092  .00066801  00000+0  11330-2 0  9990",
        "tle_line2": "2 66558  42.9976 100.2052 0002272 283.9242  76.1365 15.50621842  5188"
      },
      "geometry": {
        "type": "Point",
        "coordinates": [
          147.50822104428988,
          35.960666928600155
        ]
      }
    },
    {
      "type": "Feature",
      "properties": {
        "norad_id": 66559,
        "name": "STARLINK-35419",
        "group": "last-30-days",
        "lat": 36.80473595555064,
        "lon": 149.77743894595815,
        "alt_km": 409.6056342233642,
        "timestamp": "2025-12-16T23:36:34.922657+00:00",
        "meta_object_name": "STARLINK-35419",
        "meta_object_id": "2025-268C",
        "meta_epoch": "2025-12-16T00:09:28.435968",
        "meta_mean_motion": 15.50598342,
        "meta_eccentricity": 0.00017906,
        "meta_inclination": 43.0013,
        "meta_ra_of_asc_node": 102.0862,
        "meta_arg_of_pericenter": 273.7501,
        "meta_mean_anomaly": 86.3154,
        "meta_ephemeris_type": 0,
        "meta_classification_type": "U",
        "meta_norad_cat_id": 66559,
        "meta_element_set_no": 999,
        "meta_rev_at_epoch": 513,
        "meta_bstar": 0.0013126316,
        "meta_mean_motion_dot": 0.00077484,
        "meta_mean_motion_ddot": 0,
        "tle_line1": "1 66559U 25268C   25350.00657912  .00077484  00000+0  13126-2 0  9993",
        "tle_line2": "2 66559  43.0013 102.0862 0001790 273.7501  86.3154 15.50598342  5133"
      },
      "geometry": {
        "type": "Point",
        "coordinates": [
          149.77743894595815,
          36.80473595555064
        ]
      }
    },
    {
      "type": "Feature",
      "properties": {
        "norad_id": 66560,
        "name": "STARLINK-35411",
        "group": "last-30-days",
        "lat": 37.66885941582557,
        "lon": 152.30448569315658,
        "alt_km": 409.474296322418,
        "timestamp": "2025-12-16T23:36:34.922668+00:00",
        "meta_object_name": "STARLINK-35411",
        "meta_object_id": "2025-268D",
        "meta_epoch": "2025-12-16T00:08:58.175232",
        "meta_mean_motion": 15.50682008,
        "meta_eccentricity": 0.0002063,
        "meta_inclination": 43.0002,
        "meta_ra_of_asc_node": 102.0823,
        "meta_arg_of_pericenter": 275.777,
        "meta_mean_anomaly": 84.2855,
        "meta_ephemeris_type": 0,
        "meta_classification_type": "U",
        "meta_norad_cat_id": 66560,
        "meta_element_set_no": 999,
        "meta_rev_at_epoch": 513,
        "meta_bstar": 0.0010109704,
        "meta_mean_motion_dot": 0.00059641,
        "meta_mean_motion_ddot": 0,
        "tle_line1": "1 66560U 25268D   25350.00622888  .00059641  00000+0  10110-2 0  9994",
        "tle_line2": "2 66560  43.0002 102.0823 0002063 275.7770  84.2855 15.50682008  5132"
      },
      "geometry": {
        "type": "Point",
        "coordinates": [
          152.30448569315658,
          37.66885941582557
        ]
      }
    }
  ]
}